IRIDIUM 57 [-]          
1 25273U 98019B   23315.48731492  .00000655  00000+0  22329-3 0  9994
2 25273  86.4004  29.6850 0002107  93.5483 266.5954 14.34979743341056
IRIDIUM 63 [-]          
1 25286U 98021B   23315.52129184  .00000710  00000+0  24011-3 0  9997
2 25286  86.3965 326.6278 0002226  86.3743 273.7708 14.35483744340081
IRIDIUM 69 [-]          
1 25319U 98026A   23315.80999890  .00000779  00000+0  24304-3 0  9999
2 25319  86.3987 341.5266 0003979 119.5175 240.6421 14.39662685339337
IRIDIUM 71 [-]          
1 25320U 98026B   23315.58094011  .00000598  00000+0  18391-3 0  9995
2 25320  86.3973 336.4449 0002189 149.6065 210.5262 14.39988433339571
IRIDIUM 73 [-]          
1 25344U 98032C   23315.45291833  .00001090  00000+0  27582-3 0  9995
2 25344  86.4375 294.2629 0002624 103.0933 257.0565 14.50123886345921
IRIDIUM 82 [-]          
1 25467U 98051A   23315.59557229  .00011870  00000+0  69064-3 0  9999
2 25467  86.3988  28.6467 0142068 299.9577  58.7614 15.03689114335572
IRIDIUM 2 [-]           
1 25527U 98066A   23315.62061574  .00046339  00000+0  98479-3 0  9999
2 25527  85.5169  81.5427 0005008  86.7142 273.4686 15.44802600373846
